[{"OBJECT_NAME":"OBJECT F","OBJECT_ID":"2024-092F","EPOCH":"2026-03-09T21:54:46.147104","MEAN_MOTION":15.3361444,"ECCENTRICITY":0.00086458,"INCLINATION":97.6418,"RA_OF_ASC_NODE":198.4543,"ARG_OF_PERICENTER":142.6506,"MEAN_ANOMALY":217.5339,"EPHEMERIS_TYPE":0,"CLASSIFICATION_TYPE":"U","NORAD_CAT_ID":59778,"ELEMENT_SET_NO":999,"REV_AT_EPOCH":10053,"BSTAR":0.0007914277,"MEAN_MOTION_DOT":0.00025723,"MEAN_MOTION_DDOT":0},{"OBJECT_NAME":"STARLINK-35089","OBJECT_ID":"2025-195AC","EPOCH":"2026-03-09T21:56:21.993216","MEAN_MOTION":15.30194313,"ECCENTRICITY":0.00011264,"INCLINATION":53.1615,"RA_OF_ASC_NODE":257.428,"ARG_OF_PERICENTER":333.8824,"MEAN_ANOMALY":26.212,"EPHEMERIS_TYPE":0,"CLASSIFICATION_TYPE":"U","NORAD_CAT_ID":65484,"ELEMENT_SET_NO":999,"REV_AT_EPOCH":3000,"BSTAR":0.00094089997,"MEAN_MOTION_DOT":0.00027606,"MEAN_MOTION_DDOT":0}]
